start=new Date('2021-10-15T00:00:00.000Z').valueOf();
sats=[{"MEAN_MOTION_DOT":"-0.00000379","REV_AT_EPOCH":"8289","PERIAPSIS":"545.908","OBJECT_TYPE":"PAYLOAD","SITE":"AFETR","FILE":"3163138","BSTAR":"-0.00000650600000","MEAN_ELEMENT_THEORY":"SGP4","CENTER_NAME":"EARTH","CLASSIFICATION_TYPE":"U","REF_FRAME":"TEME","COUNTRY_CODE":"US","LAUNCH_DATE":"2020-04-22","NORAD_CAT_ID":"45536","ARG_OF_PERICENTER":"84.4198","DECAY_DATE":null,"SEMIMAJOR_AXIS":"6925.364","TIME_SYSTEM":"UTC","OBJECT_NAME":"STARLINK-1352","MEAN_ANOMALY":"275.7008","MEAN_MOTION_DDOT":"0.0000000000000","ELEMENT_SET_NO":"999","TLE_LINE2":"2 45536  53.0534 120.1773 0001908  84.4198 275.7008 15.06394890 82899","RA_OF_ASC_NODE":"120.1773","PERIOD":"95.592","INCLINATION":"53.0534","OBJECT_ID":"2020-025F","GP_ID":"187188034","MEAN_MOTION":"15.06394890","EPHEMERIS_TYPE":"0","EPOCH":"2021-10-14T19:29:46.882752","APOAPSIS":"548.551","ECCENTRICITY":"0.00019080","TLE_LINE1":"1 45536U 20025F   21287.81234818 -.00000379  00000-0 -65060-5 0  9990","RCS_SIZE":"LARGE"},{"OBJECT_TYPE":"PAYLOAD","MEAN_MOTION_DOT":"0.00006326","REV_AT_EPOCH":"8321","PERIAPSIS":"520.479","TIME_SYSTEM":"UTC","OBJECT_NAME":"STARLINK-1353","MEAN_ANOMALY":"306.6526","MEAN_ELEMENT_THEORY":"SGP4","CENTER_NAME":"EARTH","BSTAR":"0.00035312000000","FILE":"3163138","SITE":"AFETR","CLASSIFICATION_TYPE":"U","REF_FRAME":"TEME","DECAY_DATE":null,"ARG_OF_PERICENTER":"53.4631","LAUNCH_DATE":"2020-04-22","NORAD_CAT_ID":"45537","COUNTRY_CODE":"US","SEMIMAJOR_AXIS":"6899.851","RA_OF_ASC_NODE":"96.4392","TLE_LINE2":"2 45537  53.0009  96.4392 0001792  53.4631 306.6526 15.14757897 83213","PERIOD":"95.065","INCLINATION":"53.0009","ELEMENT_SET_NO":"999","MEAN_MOTION_DDOT":"0.0000000000000","ECCENTRICITY":"0.00017920","TLE_LINE1":"1 45537U 20025G   21287.78853255  .00006326  00000-0  35312-3 0  9990","RCS_SIZE":"LARGE","MEAN_MOTION":"15.14757897","GP_ID":"187187283","OBJECT_ID":"2020-025G","EPHEMERIS_TYPE":"0","EPOCH":"2021-10-14T18:55:29.212320","APOAPSIS":"522.952"},{"OBJECT_NAME":"STARLINK-1362","MEAN_ANOMALY":"265.0993","TIME_SYSTEM":"UTC","DECAY_DATE":null,"ARG_OF_PERICENTER":"95.0172","LAUNCH_DATE":"2020-04-22","COUNTRY_CODE":"US","NORAD_CAT_ID":"45538","SEMIMAJOR_AXIS":"6925.379","MEAN_ELEMENT_THEORY":"SGP4","CENTER_NAME":"EARTH","FILE":"3163138","BSTAR":"-0.00003463300000","SITE":"AFETR","CLASSIFICATION_TYPE":"U","REF_FRAME":"TEME","OBJECT_TYPE":"PAYLOAD","PERIAPSIS":"546.173","MEAN_MOTION_DOT":"-0.00000797","REV_AT_EPOCH":"8291","ECCENTRICITY":"0.00015470","TLE_LINE1":"1 45538U 20025H   21287.90449391 -.00000797  00000-0 -34633-4 0  9991","RCS_SIZE":"LARGE","EPOCH":"2021-10-14T21:42:28.273824","APOAPSIS":"548.316","MEAN_MOTION":"15.06389986","GP_ID":"187187533","OBJECT_ID":"2020-025H","EPHEMERIS_TYPE":"0","PERIOD":"95.593","INCLINATION":"53.0536","RA_OF_ASC_NODE":"119.7570","TLE_LINE2":"2 45538  53.0536 119.7570 0001547  95.0172 265.0993 15.06389986 82919","ELEMENT_SET_NO":"999","MEAN_MOTION_DDOT":"0.0000000000000"},{"SEMIMAJOR_AXIS":"6733.040","COUNTRY_CODE":"US","LAUNCH_DATE":"2020-04-22","NORAD_CAT_ID":"45539","DECAY_DATE":null,"ARG_OF_PERICENTER":"10.6453","CLASSIFICATION_TYPE":"U","REF_FRAME":"TEME","FILE":"3161987","BSTAR":"-0.00011829000000","SITE":"AFETR","CENTER_NAME":"EARTH","MEAN_ELEMENT_THEORY":"SGP4","MEAN_ANOMALY":"349.4643","OBJECT_NAME":"STARLINK-1367","TIME_SYSTEM":"UTC","PERIAPSIS":"352.379","REV_AT_EPOCH":"8336","MEAN_MOTION_DOT":"-0.00015965","OBJECT_TYPE":"PAYLOAD","APOAPSIS":"357.431","EPOCH":"2021-10-14T14:22:09.019200","EPHEMERIS_TYPE":"0","OBJECT_ID":"2020-025J","MEAN_MOTION":"15.71397201","GP_ID":"187143033","TLE_LINE1":"1 45539U 20025J   21287.59871550 -.00015965  00000-0 -11829-3 0  9997","RCS_SIZE":"LARGE","ECCENTRICITY":"0.00037510","MEAN_MOTION_DDOT":"0.0000000000000","ELEMENT_SET_NO":"999","PERIOD":"91.638","INCLINATION":"53.0576","TLE_LINE2":"2 45539  53.0576  41.3832 0003751  10.6453 349.4643 15.71397201 83369","RA_OF_ASC_NODE":"41.3832"},{"PERIOD":"95.593","INCLINATION":"53.0527","TLE_LINE2":"2 45540  53.0527 120.1635 0002438  84.2783 275.8484 15.06391209 82890","RA_OF_ASC_NODE":"120.1635","MEAN_MOTION_DDOT":"0.0000000000000","ELEMENT_SET_NO":"999","ECCENTRICITY":"0.00024380","RCS_SIZE":"LARGE","TLE_LINE1":"1 45540U 20025K   21287.81603327  .00000094  00000-0  25266-4 0  9995","EPOCH":"2021-10-14T19:35:05.274528","APOAPSIS":"548.929","OBJECT_ID":"2020-025K","GP_ID":"187188535","MEAN_MOTION":"15.06391209","EPHEMERIS_TYPE":"0","OBJECT_TYPE":"PAYLOAD","PERIAPSIS":"545.552","MEAN_MOTION_DOT":"0.00000094","REV_AT_EPOCH":"8289","OBJECT_NAME":"STARLINK-1368","MEAN_ANOMALY":"275.8484","TIME_SYSTEM":"UTC","LAUNCH_DATE":"2020-04-22","COUNTRY_CODE":"US","NORAD_CAT_ID":"45540","ARG_OF_PERICENTER":"84.2783","DECAY_DATE":null,"SEMIMAJOR_AXIS":"6925.376","FILE":"3163138","SITE":"AFETR","BSTAR":"0.00002526600000","MEAN_ELEMENT_THEORY":"SGP4","CENTER_NAME":"EARTH","REF_FRAME":"TEME","CLASSIFICATION_TYPE":"U"},{"ELEMENT_SET_NO":"999","MEAN_MOTION_DDOT":"0.0000000000000","INCLINATION":"53.0527","PERIOD":"95.593","TLE_LINE2":"2 45541  53.0527 120.1437 0001875  83.4836 276.6367 15.06394182 82897","RA_OF_ASC_NODE":"120.1437","APOAPSIS":"548.530","EPOCH":"2021-10-14T19:40:23.494368","EPHEMERIS_TYPE":"0","MEAN_MOTION":"15.06394182","GP_ID":"187186783","OBJECT_ID":"2020-025L","RCS_SIZE":"LARGE","TLE_LINE1":"1 45541U 20025L   21287.81971637 -.00000993  00000-0 -47790-4 0  9994","ECCENTRICITY":"0.00018750","PERIAPSIS":"545.933","REV_AT_EPOCH":"8289","MEAN_MOTION_DOT":"-0.00000993","OBJECT_TYPE":"PAYLOAD","SEMIMAJOR_AXIS":"6925.366","DECAY_DATE":null,"ARG_OF_PERICENTER":"83.4836","LAUNCH_DATE":"2020-04-22","NORAD_CAT_ID":"45541","COUNTRY_CODE":"US","REF_FRAME":"TEME","CLASSIFICATION_TYPE":"U","MEAN_ELEMENT_THEORY":"SGP4","CENTER_NAME":"EARTH","FILE":"3163138","BSTAR":"-0.00004779000000","SITE":"AFETR","MEAN_ANOMALY":"276.6367","OBJECT_NAME":"STARLINK-1369","TIME_SYSTEM":"UTC"},{"PERIAPSIS":"545.788","REV_AT_EPOCH":"8222","MEAN_MOTION_DOT":"-0.00000442","OBJECT_TYPE":"PAYLOAD","SEMIMAJOR_AXIS":"6925.346","NORAD_CAT_ID":"45542","LAUNCH_DATE":"2020-04-22","COUNTRY_CODE":"US","DECAY_DATE":null,"ARG_OF_PERICENTER":"87.8625","CLASSIFICATION_TYPE":"U","REF_FRAME":"TEME","SITE":"AFETR","FILE":"3162314","BSTAR":"-0.00001076300000","MEAN_ELEMENT_THEORY":"SGP4","CENTER_NAME":"EARTH","MEAN_ANOMALY":"272.2599","OBJECT_NAME":"STARLINK-1371","TIME_SYSTEM":"UTC","MEAN_MOTION_DDOT":"0.0000000000000","ELEMENT_SET_NO":"999","INCLINATION":"53.0538","PERIOD":"95.592","RA_OF_ASC_NODE":"122.6737","TLE_LINE2":"2 45542  53.0538 122.6737 0002055  87.8625 272.2599 15.06400741 82220","APOAPSIS":"548.634","EPOCH":"2021-10-14T06:08:17.995776","EPHEMERIS_TYPE":"0","OBJECT_ID":"2020-025M","MEAN_MOTION":"15.06400741","GP_ID":"187149431","RCS_SIZE":"LARGE","TLE_LINE1":"1 45542U 20025M   21287.25576384 -.00000442  00000-0 -10763-4 0  9992","ECCENTRICITY":"0.00020550"},{"CLASSIFICATION_TYPE":"U","REF_FRAME":"TEME","MEAN_ELEMENT_THEORY":"SGP4","CENTER_NAME":"EARTH","FILE":"3163138","SITE":"AFETR","BSTAR":"-0.00000539330000","SEMIMAJOR_AXIS":"6925.388","DECAY_DATE":null,"ARG_OF_PERICENTER":"83.6725","COUNTRY_CODE":"US","LAUNCH_DATE":"2020-04-22","NORAD_CAT_ID":"45543","TIME_SYSTEM":"UTC","MEAN_ANOMALY":"276.4482","OBJECT_NAME":"STARLINK-1372","REV_AT_EPOCH":"8199","MEAN_MOTION_DOT":"-0.00000362","PERIAPSIS":"545.924","OBJECT_TYPE":"PAYLOAD","EPHEMERIS_TYPE":"0","MEAN_MOTION":"15.06387253","GP_ID":"187188285","OBJECT_ID":"2020-025N","APOAPSIS":"548.581","EPOCH":"2021-10-14T19:45:41.856768","TLE_LINE1":"1 45543U 20025N   21287.82340112 -.00000362  00000-0 -53933-5 0  9992","RCS_SIZE":"LARGE","ECCENTRICITY":"0.00019180","ELEMENT_SET_NO":"999","MEAN_MOTION_DDOT":"0.0000000000000","TLE_LINE2":"2 45543  53.0523 120.1230 0001918  83.6725 276.4482 15.06387253 81990","RA_OF_ASC_NODE":"120.1230","PERIOD":"95.593","INCLINATION":"53.0523"},{"PERIAPSIS":"546.046","REV_AT_EPOCH":"8291","MEAN_MOTION_DOT":"-0.00000658","OBJECT_TYPE":"PAYLOAD","SEMIMAJOR_AXIS":"6925.402","ARG_OF_PERICENTER":"87.7806","DECAY_DATE":null,"LAUNCH_DATE":"2020-04-22","NORAD_CAT_ID":"45544","COUNTRY_CODE":"US","CLASSIFICATION_TYPE":"U","REF_FRAME":"TEME","MEAN_ELEMENT_THEORY":"SGP4","CENTER_NAME":"EARTH","FILE":"3163138","BSTAR":"-0.00002526000000","SITE":"AFETR","MEAN_ANOMALY":"272.3385","OBJECT_NAME":"STARLINK-1373","TIME_SYSTEM":"UTC","ELEMENT_SET_NO":"999","MEAN_MOTION_DDOT":"0.0000000000000","PERIOD":"95.593","INCLINATION":"53.0536","RA_OF_ASC_NODE":"119.7508","TLE_LINE2":"2 45544  53.0536 119.7508 0001764  87.7806 272.3385 15.06382481 82919","APOAPSIS":"548.489","EPOCH":"2021-10-14T21:47:47.177088","EPHEMERIS_TYPE":"0","MEAN_MOTION":"15.06382481","GP_ID":"187188035","OBJECT_ID":"2020-025P","RCS_SIZE":"LARGE","TLE_LINE1":"1 45544U 20025P   21287.90818492 -.00000658  00000-0 -25260-4 0  9992","ECCENTRICITY":"0.00017640"},{"MEAN_MOTION_DOT":"-0.00000659","REV_AT_EPOCH":"8287","PERIAPSIS":"546.008","OBJECT_TYPE":"PAYLOAD","CENTER_NAME":"EARTH","MEAN_ELEMENT_THEORY":"SGP4","FILE":"3163138","BSTAR":"-0.00002536200000","SITE":"AFETR","REF_FRAME":"TEME","CLASSIFICATION_TYPE":"U","ARG_OF_PERICENTER":"77.3032","DECAY_DATE":null,"NORAD_CAT_ID":"45545","LAUNCH_DATE":"2020-04-22","COUNTRY_CODE":"US","SEMIMAJOR_AXIS":"6925.358","TIME_SYSTEM":"UTC","OBJECT_NAME":"STARLINK-1374","MEAN_ANOMALY":"282.8153","ELEMENT_SET_NO":"999","MEAN_MOTION_DDOT":"0.0000000000000","RA_OF_ASC_NODE":"120.2649","TLE_LINE2":"2 45545  53.0528 120.2649 0001755  77.3032 282.8153 15.06396761 82870","PERIOD":"95.592","INCLINATION":"53.0528","MEAN_MOTION":"15.06396761","GP_ID":"187187284","OBJECT_ID":"2020-025Q","EPHEMERIS_TYPE":"0","EPOCH":"2021-10-14T19:03:14.040000","APOAPSIS":"548.439","ECCENTRICITY":"0.00017550","TLE_LINE1":"1 45545U 20025Q   21287.79391250 -.00000659  00000-0 -25362-4 0  9992","RCS_SIZE":"LARGE"}];
